[{"OBJECT_NAME":"STARLINK-34470","OBJECT_ID":"2025-142H","EPOCH":"2026-02-11T09:03:36.254016","MEAN_MOTION":14.97975396,"ECCENTRICITY":0.00015527,"INCLINATION":70.0028,"RA_OF_ASC_NODE":20.6084,"ARG_OF_PERICENTER":242.1027,"MEAN_ANOMALY":117.9975,"EPHEMERIS_TYPE":0,"CLASSIFICATION_TYPE":"U","NORAD_CAT_ID":64703,"ELEMENT_SET_NO":999,"REV_AT_EPOCH":3552,"BSTAR":-0.019483635,"MEAN_MOTION_DOT":-0.00223231,"MEAN_MOTION_DDOT":0},{"OBJECT_NAME":"STARLINK-34405","OBJECT_ID":"2025-142J","EPOCH":"2026-02-10T14:14:06.077760","MEAN_MOTION":14.9833073,"ECCENTRICITY":0.00026879,"INCLINATION":70.0035,"RA_OF_ASC_NODE":22.7125,"ARG_OF_PERICENTER":275.3288,"MEAN_ANOMALY":84.7564,"EPHEMERIS_TYPE":0,"CLASSIFICATION_TYPE":"U","NORAD_CAT_ID":64704,"ELEMENT_SET_NO":999,"REV_AT_EPOCH":3543,"BSTAR":0.00076011492,"MEAN_MOTION_DOT":8.988e-5,"MEAN_MOTION_DDOT":0},{"OBJECT_NAME":"STARLINK-34406","OBJECT_ID":"2025-142K","EPOCH":"2026-02-11T22:52:35.612544","MEAN_MOTION":14.98348562,"ECCENTRICITY":0.00021432,"INCLINATION":70.0041,"RA_OF_ASC_NODE":19.4279,"ARG_OF_PERICENTER":272.8623,"MEAN_ANOMALY":87.2291,"EPHEMERIS_TYPE":0,"CLASSIFICATION_TYPE":"U","NORAD_CAT_ID":64705,"ELEMENT_SET_NO":999,"REV_AT_EPOCH":3574,"BSTAR":0.00040928549,"MEAN_MOTION_DOT":4.796e-5,"MEAN_MOTION_DDOT":0},{"OBJECT_NAME":"STARLINK-34559","OBJECT_ID":"2025-142L","EPOCH":"2026-02-11T09:27:28.791936","MEAN_MOTION":14.98353365,"ECCENTRICITY":0.00028643,"INCLINATION":70.0034,"RA_OF_ASC_NODE":20.6911,"ARG_OF_PERICENTER":295.7006,"MEAN_ANOMALY":64.3857,"EPHEMERIS_TYPE":0,"CLASSIFICATION_TYPE":"U","NORAD_CAT_ID":64706,"ELEMENT_SET_NO":999,"REV_AT_EPOCH":3555,"BSTAR":0.00096204427,"MEAN_MOTION_DOT":0.00011412,"MEAN_MOTION_DDOT":0},{"OBJECT_NAME":"STARLINK-34316","OBJECT_ID":"2025-142M","EPOCH":"2026-02-10T07:55:19.000128","MEAN_MOTION":14.98335829,"ECCENTRICITY":0.00029646,"INCLINATION":70.0025,"RA_OF_ASC_NODE":23.3979,"ARG_OF_PERICENTER":272.5017,"MEAN_ANOMALY":87.5803,"EPHEMERIS_TYPE":0,"CLASSIFICATION_TYPE":"U","NORAD_CAT_ID":64707,"ELEMENT_SET_NO":999,"REV_AT_EPOCH":3555,"BSTAR":0.00016067832,"MEAN_MOTION_DOT":1.825e-5,"MEAN_MOTION_DDOT":0},{"OBJECT_NAME":"STARLINK-34563","OBJECT_ID":"2025-142N","EPOCH":"2026-02-11T08:57:26.401536","MEAN_MOTION":14.98336024,"ECCENTRICITY":0.00029196,"INCLINATION":70.0026,"RA_OF_ASC_NODE":21.015,"ARG_OF_PERICENTER":261.0903,"MEAN_ANOMALY":98.9926,"EPHEMERIS_TYPE":0,"CLASSIFICATION_TYPE":"U","NORAD_CAT_ID":64708,"ELEMENT_SET_NO":999,"REV_AT_EPOCH":3551,"BSTAR":0.00031298077,"MEAN_MOTION_DOT":3.644e-5,"MEAN_MOTION_DDOT":0},{"OBJECT_NAME":"STARLINK-34499","OBJECT_ID":"2025-142P","EPOCH":"2026-02-11T20:34:23.398464","MEAN_MOTION":14.98335391,"ECCENTRICITY":0.00029046,"INCLINATION":70.0035,"RA_OF_ASC_NODE":19.4692,"ARG_OF_PERICENTER":289.4313,"MEAN_ANOMALY":70.6532,"EPHEMERIS_TYPE":0,"CLASSIFICATION_TYPE":"U","NORAD_CAT_ID":64709,"ELEMENT_SET_NO":999,"REV_AT_EPOCH":3559,"BSTAR":0.0011723693,"MEAN_MOTION_DOT":0.00013925,"MEAN_MOTION_DDOT":0},{"OBJECT_NAME":"STARLINK-34447","OBJECT_ID":"2025-142Q","EPOCH":"2026-02-11T08:54:23.843520","MEAN_MOTION":14.95918306,"ECCENTRICITY":0.00028999,"INCLINATION":70.0021,"RA_OF_ASC_NODE":20.5787,"ARG_OF_PERICENTER":267.9184,"MEAN_ANOMALY":92.1642,"EPHEMERIS_TYPE":0,"CLASSIFICATION_TYPE":"U","NORAD_CAT_ID":64710,"ELEMENT_SET_NO":999,"REV_AT_EPOCH":3571,"BSTAR":0.00035834073,"MEAN_MOTION_DOT":3.93e-5,"MEAN_MOTION_DDOT":0},{"OBJECT_NAME":"STARLINK-34312","OBJECT_ID":"2025-142R","EPOCH":"2026-02-11T22:28:32.143296","MEAN_MOTION":14.98393116,"ECCENTRICITY":9.297e-5,"INCLINATION":70.0024,"RA_OF_ASC_NODE":19.3708,"ARG_OF_PERICENTER":264.5962,"MEAN_ANOMALY":95.5091,"EPHEMERIS_TYPE":0,"CLASSIFICATION_TYPE":"U","NORAD_CAT_ID":64711,"ELEMENT_SET_NO":999,"REV_AT_EPOCH":3579,"BSTAR":-0.0023560956,"MEAN_MOTION_DOT":-0.00028136,"MEAN_MOTION_DDOT":0},{"OBJECT_NAME":"STARLINK-34515","OBJECT_ID":"2025-142S","EPOCH":"2026-02-11T16:00:01.999584","MEAN_MOTION":14.98375731,"ECCENTRICITY":0.00028293,"INCLINATION":70.0019,"RA_OF_ASC_NODE":19.8985,"ARG_OF_PERICENTER":272.1179,"MEAN_ANOMALY":184.7399,"EPHEMERIS_TYPE":0,"CLASSIFICATION_TYPE":"U","NORAD_CAT_ID":64712,"ELEMENT_SET_NO":999,"REV_AT_EPOCH":578,"BSTAR":-0.0007385618,"MEAN_MOTION_DOT":-8.905e-5,"MEAN_MOTION_DDOT":0},{"OBJECT_NAME":"STARLINK-34583","OBJECT_ID":"2025-142T","EPOCH":"2026-02-10T08:43:24.633984","MEAN_MOTION":14.98327622,"ECCENTRICITY":0.00029948,"INCLINATION":70.002,"RA_OF_ASC_NODE":23.478,"ARG_OF_PERICENTER":270.2744,"MEAN_ANOMALY":89.8072,"EPHEMERIS_TYPE":0,"CLASSIFICATION_TYPE":"U","NORAD_CAT_ID":64713,"ELEMENT_SET_NO":999,"REV_AT_EPOCH":3536,"BSTAR":0.00059385187,"MEAN_MOTION_DOT":6.999e-5,"MEAN_MOTION_DDOT":0},{"OBJECT_NAME":"STARLINK-34574","OBJECT_ID":"2025-142U","EPOCH":"2026-02-11T22:46:49.715328","MEAN_MOTION":14.98335437,"ECCENTRICITY":0.0002936,"INCLINATION":70.0026,"RA_OF_ASC_NODE":19.4126,"ARG_OF_PERICENTER":278.7516,"MEAN_ANOMALY":81.3311,"EPHEMERIS_TYPE":0,"CLASSIFICATION_TYPE":"U","NORAD_CAT_ID":64714,"ELEMENT_SET_NO":999,"REV_AT_EPOCH":3563,"BSTAR":0.00060950602,"MEAN_MOTION_DOT":7.188e-5,"MEAN_MOTION_DDOT":0},{"OBJECT_NAME":"STARLINK-34533","OBJECT_ID":"2025-142V","EPOCH":"2026-02-11T22:28:38.368416","MEAN_MOTION":14.98768994,"ECCENTRICITY":0.00066341,"INCLINATION":70.003,"RA_OF_ASC_NODE":19.3698,"ARG_OF_PERICENTER":252.3904,"MEAN_ANOMALY":107.6532,"EPHEMERIS_TYPE":0,"CLASSIFICATION_TYPE":"U","NORAD_CAT_ID":64715,"ELEMENT_SET_NO":999,"REV_AT_EPOCH":3560,"BSTAR":0.016206059,"MEAN_MOTION_DOT":0.00201246,"MEAN_MOTION_DDOT":0},{"OBJECT_NAME":"STARLINK-34548","OBJECT_ID":"2025-142W","EPOCH":"2026-02-11T22:04:34.009248","MEAN_MOTION":15.00145794,"ECCENTRICITY":0.00124161,"INCLINATION":70.0056,"RA_OF_ASC_NODE":19.3135,"ARG_OF_PERICENTER":236.7968,"MEAN_ANOMALY":123.2002,"EPHEMERIS_TYPE":0,"CLASSIFICATION_TYPE":"U","NORAD_CAT_ID":64716,"ELEMENT_SET_NO":999,"REV_AT_EPOCH":3560,"BSTAR":0.11482077,"MEAN_MOTION_DOT":0.01563681,"MEAN_MOTION_DDOT":0},{"OBJECT_NAME":"STARLINK-34568","OBJECT_ID":"2025-142X","EPOCH":"2026-02-11T22:40:33.960864","MEAN_MOTION":14.98345925,"ECCENTRICITY":0.00016897,"INCLINATION":70.0038,"RA_OF_ASC_NODE":19.4001,"ARG_OF_PERICENTER":316.7981,"MEAN_ANOMALY":43.3045,"EPHEMERIS_TYPE":0,"CLASSIFICATION_TYPE":"U","NORAD_CAT_ID":64717,"ELEMENT_SET_NO":999,"REV_AT_EPOCH":3563,"BSTAR":0.00051317326,"MEAN_MOTION_DOT":6.038e-5,"MEAN_MOTION_DDOT":0},{"OBJECT_NAME":"STARLINK-34546","OBJECT_ID":"2025-142Y","EPOCH":"2026-02-11T09:03:26.044128","MEAN_MOTION":14.98347951,"ECCENTRICITY":0.00030434,"INCLINATION":70.0026,"RA_OF_ASC_NODE":20.629,"ARG_OF_PERICENTER":342.5351,"MEAN_ANOMALY":17.5703,"EPHEMERIS_TYPE":0,"CLASSIFICATION_TYPE":"U","NORAD_CAT_ID":64718,"ELEMENT_SET_NO":999,"REV_AT_EPOCH":3571,"BSTAR":0.0010066272,"MEAN_MOTION_DOT":0.00011944,"MEAN_MOTION_DDOT":0}]
