STARLINK-34470          
1 64703U 25142H   26042.37750294 -.00223231  00000+0 -19484-1 0  9996
2 64703  70.0028  20.6084 0001552 242.1027 117.9975 14.97975396 35524
STARLINK-34405          
1 64704U 25142J   26041.59312590  .00008988  00000+0  76011-3 0  9992
2 64704  70.0035  22.7125 0002687 275.3288  84.7564 14.98330730 35432
STARLINK-34406          
1 64705U 25142K   26042.95318996  .00004796  00000+0  40929-3 0  9992
2 64705  70.0041  19.4279 0002143 272.8623  87.2291 14.98348562 35746
STARLINK-34559          
1 64706U 25142L   26042.39408324  .00011412  00000+0  96204-3 0  9996
2 64706  70.0034  20.6911 0002864 295.7006  64.3857 14.98353365 35555
STARLINK-34316          
1 64707U 25142M   26041.33008102  .00001825  00000+0  16068-3 0  9997
2 64707  70.0025  23.3979 0002964 272.5017  87.5803 14.98335829 35559
STARLINK-34563          
1 64708U 25142N   26042.37322224  .00003644  00000+0  31298-3 0  9990
2 64708  70.0026  21.0150 0002919 261.0903  98.9926 14.98336024 35510
STARLINK-34499          
1 64709U 25142P   26042.85721526  .00013925  00000+0  11724-2 0  9996
2 64709  70.0035  19.4692 0002904 289.4313  70.6532 14.98335391 35590
STARLINK-34447          
1 64710U 25142Q   26042.37110930  .00003930  00000+0  35834-3 0  9990
2 64710  70.0021  20.5787 0002899 267.9184  92.1642 14.95918306 35710
STARLINK-34312          
1 64711U 25142R   26042.93648314 -.00028136  00000+0 -23561-2 0  9995
2 64711  70.0024  19.3708 0000929 264.5962  95.5091 14.98393116 35794
STARLINK-34515          
1 64712U 25142S   26042.66668981 -.00008905  00000+0 -73856-3 0  9993
2 64712  70.0019  19.8985 0002829 272.1179 184.7399 14.98375731  5788
STARLINK-34583          
1 64713U 25142T   26041.36347956  .00006999  00000+0  59385-3 0  9996
2 64713  70.0020  23.4780 0002994 270.2744  89.8072 14.98327622 35361
STARLINK-34574          
1 64714U 25142U   26042.94918652  .00007188  00000+0  60951-3 0  9991
2 64714  70.0026  19.4126 0002936 278.7516  81.3311 14.98335437 35639
STARLINK-34533          
1 64715U 25142V   26042.93655519  .00201246  00000+0  16206-1 0  9994
2 64715  70.0030  19.3698 0006634 252.3904 107.6532 14.98768994 35608
STARLINK-34548          
1 64716U 25142W   26042.91983807  .01563681  00000+0  11482+0 0  9991
2 64716  70.0056  19.3135 0012416 236.7968 123.2002 15.00145794 35601
STARLINK-34568          
1 64717U 25142X   26042.94483751  .00006038  00000+0  51317-3 0  9990
2 64717  70.0038  19.4001 0001689 316.7981  43.3045 14.98345925 35635
STARLINK-34546          
1 64718U 25142Y   26042.37738477  .00011944  00000+0  10066-2 0  9993
2 64718  70.0026  20.6290 0003043 342.5351  17.5703 14.98347951 35715
